{
    "links": {
        "self": "http://www.neowsapp.com/rest/v1/neo/3092333?api_key=iIulBulltgU6a56xZRHN4H3l9WmuAYTsLGpBGhQ2"
    },
    "id": "3092333",
    "neo_reference_id": "3092333",
    "name": "(2001 SB170)",
    "designation": "2001 SB170",
    "nasa_jpl_url": "http://ssd.jpl.nasa.gov/sbdb.cgi?sstr=3092333",
    "absolute_magnitude_h": 22.6,
    "estimated_diameter": {
        "kilometers": {
            "estimated_diameter_min": 0.0802703167,
            "estimated_diameter_max": 0.1794898848
        },
        "meters": {
            "estimated_diameter_min": 80.2703167283,
            "estimated_diameter_max": 179.4898847799
        },
        "miles": {
            "estimated_diameter_min": 0.049877647,
            "estimated_diameter_max": 0.1115298092
        },
        "feet": {
            "estimated_diameter_min": 263.3540659348,
            "estimated_diameter_max": 588.8775935812
        }
    },
    "is_potentially_hazardous_asteroid": false,
    "close_approach_data": [
        {
            "close_approach_date": "1966-09-25",
            "close_approach_date_full": "1966-Sep-25 09:33",
            "epoch_date_close_approach": -103127220000,
            "relative_velocity": {
                "kilometers_per_second": "29.3248393394",
                "kilometers_per_hour": "105569.4216217529",
                "miles_per_hour": "65596.7331182497"
            },
            "miss_distance": {
                "astronomical": "0.3487749078",
                "lunar": "135.6734391342",
                "kilometers": "52175983.316326386",
                "miles": "32420652.6671246868"
            },
            "orbiting_body": "Earth"
        },
        {
            "close_approach_date": "2001-09-12",
            "close_approach_date_full": "2001-Sep-12 06:11",
            "epoch_date_close_approach": 1000275060000,
            "relative_velocity": {
                "kilometers_per_second": "21.083922634",
                "kilometers_per_hour": "75902.1214822708",
                "miles_per_hour": "47162.6265399143"
            },
            "miss_distance": {
                "astronomical": "0.1174956245",
                "lunar": "45.7057979305",
                "kilometers": "17577095.159519815",
                "miles": "10921900.476870847"
            },
            "orbiting_body": "Earth"
        },
        {
            "close_approach_date": "2074-09-16",
            "close_approach_date_full": "2074-Sep-16 07:30",
            "epoch_date_close_approach": 3304308600000,
            "relative_velocity": {
                "kilometers_per_second": "23.4771836654",
                "kilometers_per_hour": "84517.861195305",
                "miles_per_hour": "52516.1121410494"
            },
            "miss_distance": {
                "astronomical": "0.1279883336",
                "lunar": "49.7874617704",
                "kilometers": "19146782.091409432",
                "miles": "11897258.7083848816"
            },
            "orbiting_body": "Earth"
        }
    ],
    "orbital_data": {
        "orbit_id": "11",
        "orbit_determination_date": "2017-04-06 09:16:07",
        "first_observation_date": "2001-09-20",
        "last_observation_date": "2001-10-13",
        "data_arc_in_days": 23,
        "observations_used": 28,
        "orbit_uncertainty": "8",
        "minimum_orbit_intersection": ".00286821",
        "jupiter_tisserand_invariant": "4.571",
        "epoch_osculation": "2452178.5",
        "eccentricity": ".4638439905084564",
        "semi_major_axis": "1.360614528099992",
        "inclination": "34.51785651843191",
        "ascending_node_longitude": "356.704121158555",
        "orbital_period": "579.6970398136963",
        "perihelion_distance": ".7295016558423112",
        "perihelion_argument": "261.3441663132203",
        "aphelion_distance": "1.991727400357672",
        "perihelion_time": "2452098.486487217515",
        "mean_anomaly": "49.6895147350622",
        "mean_motion": ".6210140388429398",
        "equinox": "J2000",
        "orbit_class": {
            "orbit_class_type": "APO",
            "orbit_class_description": "Near-Earth asteroid orbits which cross the Earth’s orbit similar to that of 1862 Apollo",
            "orbit_class_range": "a (semi-major axis) > 1.0 AU; q (perihelion) < 1.017 AU"
        }
    },
    "is_sentry_object": false
}